1 44933U 20001V   22365.21719515  .00003734  00000-0  26938-3 0  9993
2 44933  53.0520 174.1429 0001342  89.1363 270.9779 15.06407086165626
1 44933U 20001V   22365.48258453  .00002397  00000-0  17976-3 0  9997
2 44933  53.0519 172.9513 0001511  97.0287 263.0874 15.06403055165660
1 44933U 20001V   22365.74797572  .00000345  00000-0  42059-4 0  9998
2 44933  53.0519 171.7606 0001372  88.4180 271.6966 15.06395248165707
1 44933U 20001V   22365.74797572  .00000345  00000-0  42059-4 0  9998
2 44933  53.0519 171.7606 0001372  88.4180 271.6966 15.06395248165707
1 44933U 20001V   23001.54414281 -.00000748  00000-0 -31302-4 0  9995
2 44933  53.0528 168.1855 0001420  96.4553 263.6597 15.06390855165823
1 44933U 20001V   23001.74318301 -.00000454  00000-0 -11575-4 0  9997
2 44933  53.0529 167.2918 0001406  88.9195 271.1955 15.06392448165851
1 44933U 20001V   23002.14126418 -.00000578  00000-0 -19911-4 0  9997
2 44933  53.0532 165.5055 0001280  86.1581 273.9555 15.06394711165915
1 44933U 20001V   23002.47299855  .00001263  00000-0  10367-3 0  9994
2 44933  53.0534 164.0158 0001330  85.7240 274.3901 15.06392402165968
1 44933U 20001V   23002.80473177  .00001328  00000-0  10807-3 0  9993
2 44933  53.0520 162.5268 0001359  85.3263 274.7881 15.06394800166012
1 44933U 20001V   23003.13646405  .00002083  00000-0  15866-3 0  9995
2 44933  53.0523 161.0374 0001332  84.6215 275.4926 15.06399359166064
1 44933U 20001V   23003.13646405  .00002083  00000-0  15866-3 0  9995
2 44933  53.0523 161.0374 0001332  84.6215 275.4926 15.06399359166064
1 44933U 20001V   23003.79993623  .00000743  00000-0  68798-4 0  9998
2 44933  53.0522 158.0590 0001340  85.4200 274.6942 15.06395659166160
1 44933U 20001V   23004.39705803  .00002060  00000-0  15712-3 0  9997
2 44933  53.0528 155.3785 0001317  84.0033 276.1106 15.06399107166256
1 44933U 20001V   23004.66244121  .00003258  00000-0  23745-3 0  9993
2 44933  53.0522 154.1875 0001357  87.4670 272.6474 15.06406491166293
1 44933U 20001V   23004.66244121  .00003258  00000-0  23745-3 0  9993
2 44933  53.0522 154.1875 0001357  87.4670 272.6474 15.06406491166293
1 44933U 20001V   23005.52494130  .00004103  00000-0  29408-3 0  9998
2 44933  53.0515 150.3148 0001324  88.4282 271.6859 15.06413590166429
1 44933U 20001V   23005.65763371  .00002977  00000-0  21861-3 0  9990
2 44933  53.0518 149.7181 0001311  90.7534 269.3606 15.06412647166441
1 44933U 20001V   23006.25476745 -.00003839  00000-0 -23910-3 0  9990
2 44933  53.0526 147.0383 0001214  84.1518 275.9610 15.06383008166532
1 44933U 20001V   23006.78554349 -.00003434  00000-0 -21183-3 0  9996
2 44933  53.0527 144.6558 0001297  83.1880 276.9257 15.06387612166614
1 44933U 20001V   23006.78554349 -.00003434  00000-0 -21183-3 0  9996
2 44933  53.0527 144.6558 0001297  83.1880 276.9257 15.06387612166614
1 44933U 20001V   23007.38266547  .00000614  00000-0  60085-4 0  9993
2 44933  53.0529 141.9758 0001322  78.6349 281.4788 15.06394082166705
1 44933U 20001V   23007.78074746  .00000962  00000-0  83494-4 0  9990
2 44933  53.0529 140.1888 0001339  76.6755 283.4383 15.06395339166762
1 44933U 20001V   23008.04614331 -.00001653  00000-0 -92138-4 0  9995
2 44933  53.0528 138.9976 0001353  78.0385 282.0755 15.06383149166804
1 44933U 20001V   23008.37788793  .00001463  00000-0  11718-3 0  9996
2 44933  53.0530 137.5083 0001529  78.2858 281.8302 15.06373933166853
1 44933U 20001V   23008.37788793  .00001463  00000-0  11718-3 0  9996
2 44933  53.0530 137.5083 0001529  78.2858 281.8302 15.06373933166853
1 44933U 20001V   23008.77597053  .00002572  00000-0  19156-3 0  9993
2 44933  53.0527 135.7216 0001593  77.6745 282.4422 15.06382230166913
1 44933U 20001V   23009.04135458  .00004140  00000-0  29670-3 0  9996
2 44933  53.0535 134.5305 0001555  78.4438 281.6725 15.06393716166956
1 44933U 20001V   23009.30673970  .00006013  00000-0  42221-3 0  9999
2 44933  53.0536 133.3386 0001620  81.2072 278.9100 15.06402193166992
1 44933U 20001V   23009.70481746  .00009872  00000-0  68043-3 0  9997
2 44933  53.0534 131.5519 0001614  77.1819 282.9350 15.06413477167051
1 44933U 20001V   23009.70481746  .00009872  00000-0  68043-3 0  9997
2 44933  53.0534 131.5519 0001614  77.1819 282.9350 15.06413477167051
1 44933U 20001V   23010.30193741  .00001394  00000-0  11245-3 0  9993
2 44933  53.0523 128.8722 0001777  69.5478 290.5702 15.06407164167142
1 44933U 20001V   23010.50097816  .00002659  00000-0  19728-3 0  9990
2 44933  53.0524 127.9777 0001578  69.9304 290.1855 15.06406347167174
1 44933U 20001V   23011.56251246  .00003793  00000-0  27326-3 0  9999
2 44933  53.0525 123.2156 0001318  71.7648 288.3485 15.06418395167331
1 44933U 20001V   23011.56251246  .00003793  00000-0  27326-3 0  9999
2 44933  53.0525 123.2156 0001318  71.7648 288.3485 15.06418395167331
1 44933U 20001V   23011.69520679  .00002705  00000-0  20031-3 0  9990
2 44933  53.0526 122.6187 0001685  57.4348 302.6803 15.06416401167356
1 44933U 20001V   23012.02694164  .00000169  00000-0  30237-4 0  9991
2 44933  53.0515 121.1291 0001855  56.5096 303.6070 15.06408712167402
1 44933U 20001V   23012.55770531  .00002971  00000-0  21817-3 0  9998
2 44933  53.0535 118.7473 0001624  35.6480 324.4617 15.06418528167489
1 44933U 20001V   23012.55770531  .00002971  00000-0  21817-3 0  9998
2 44933  53.0535 118.7473 0001624  35.6480 324.4617 15.06418528167489
1 44933U 20001V   23013.08848605 -.00001108  00000-0 -55479-4 0  9990
2 44933  53.0490 116.3637 0002265  50.7474 309.3716 15.06401667167565
1 44933U 20001V   23013.48659251 -.00004688  00000-0 -29626-3 0  9991
2 44933  53.0539 114.5733 0001165  75.3957 284.7162 15.06376828167621
1 44933U 20001V   23013.48659251 -.00004688  00000-0 -29626-3 0  9991
2 44933  53.0539 114.5733 0001165  75.3957 284.7162 15.06376828167621
1 44933U 20001V   23014.28274754 -.00002191  00000-0 -12828-3 0  9994
2 44933  53.0541 110.9992 0001172  80.7200 279.3921 15.06391846167743
1 44933U 20001V   23014.94622832  .00005705  00000-0  40171-3 0  9995
2 44933  53.0526 108.0199 0001751  75.9688 284.1496 15.06387829167840
1 44933U 20001V   23015.60969852  .00022249  00000-0  15078-2 0  9994
2 44933  53.0526 105.0443 0001299  83.8674 276.2463 15.06401593167941
1 44933U 20001V   23015.67604423  .00027583  00000-0  18629-2 0  9992
2 44933  53.0528 104.7466 0001321  89.3620 270.7521 15.06410301167954
1 44933U 20001V   23015.67604423  .00027583  00000-0  18629-2 0  9992
2 44933  53.0528 104.7466 0001321  89.3620 270.7521 15.06410301167954
1 44933U 20001V   23015.94143353  .00025237  00000-0  17065-2 0  9999
2 44933  53.0531 103.5523 0001354  78.3738 281.7403 15.06412293167990
1 44933U 20001V   23016.53855079  .00010236  00000-0  70485-3 0  9999
2 44933  53.0540 100.8718 0001436  82.4298 277.6854 15.06412504168084
1 44933U 20001V   23016.93663264  .00001704  00000-0  13326-3 0  9997
2 44933  53.0532  99.0861 0001148 100.0465 260.0653 15.06400826168140
1 44933U 20001V   23017.20202728 -.00008905  00000-0 -58009-3 0  9991
2 44933  53.0536  97.8939 0001202 112.3856 247.7261 15.06375608168187
1 44933U 20001V   23017.20202728 -.00008905  00000-0 -58009-3 0  9991
2 44933  53.0536  97.8939 0001202 112.3856 247.7261 15.06375608168187
1 44933U 20001V   23017.99819854  .00005593  00000-0  39428-3 0  9993
2 44933  53.0511  94.3220 0002006  95.4669 264.6549 15.06382502168303
1 44933U 20001V   23018.46262039  .00019141  00000-0  12998-2 0  9999
2 44933  53.0540  92.2380 0001253 104.6865 255.4262 15.06416963168379
1 44933U 20001V   23018.46262039  .00019141  00000-0  12998-2 0  9999
2 44933  53.0540  92.2380 0001253 104.6865 255.4262 15.06416963168379
1 44933U 20001V   23018.92704317  .00014710  00000-0  10037-2 0  9999
2 44933  53.0534  90.1509 0000981 107.9213 252.1883 15.06424442168444
1 44933U 20001V   23019.45781428  .00013634  00000-0  93171-3 0  9991
2 44933  53.0526  87.7681 0002065  90.0590 270.0635 15.06429268168527
1 44933U 20001V   23019.59050435  .00021393  00000-0  14493-2 0  9993
2 44933  53.0534  87.1715 0001478  91.2219 268.8940 15.06436301168548
1 44933U 20001V   23019.98858814  .00007117  00000-0  49625-3 0  9997
2 44933  53.0548  85.3855 0000778  83.4154 276.6923 15.06397200168600
1 44933U 20001V   23020.45301653  .00001429  00000-0  11483-3 0  9996
2 44933  53.0536  83.3009 0001363  92.3070 267.8075 15.06401975168675
1 44933U 20001V   23020.85109932  .00004576  00000-0  32594-3 0  9998
2 44933  53.0539  81.5146 0001389  93.4964 266.6184 15.06397949168732
1 44933U 20001V   23021.38187931 -.00000893  00000-0 -41072-4 0  9994
2 44933  53.0546  79.1337 0001469  92.7812 267.3345 15.06391852168811
1 44933U 20001V   23022.44342735  .00004268  00000-0  30526-3 0  9996
2 44933  53.0534  74.3642 0001391  91.0805 269.0343 15.06401577168972
1 44933U 20001V   23023.17324907  .00000676  00000-0  64264-4 0  9994
2 44933  53.0556  71.0901 0001563  98.8234 261.2932 15.06389457169083
1 44933U 20001V   23023.50498094  .00001158  00000-0  96616-4 0  9992
2 44933  53.0530  69.5979 0001796  92.0907 268.0287 15.06399788169135
1 44933U 20001V   23024.50018738  .00000805  00000-0  72953-4 0  9992
2 44933  53.0540  65.1288 0001648  91.7588 268.3589 15.06398519169283
1 44933U 20001V   23025.49538734  .00003227  00000-0  23538-3 0  9999
2 44933  53.0528  60.6620 0001486  96.4277 263.6881 15.06405658169439
1 44933U 20001V   23025.82712299  .00001468  00000-0  11745-3 0  9998
2 44933  53.0519  59.1729 0001247 109.0251 251.0873 15.06401479169484
1 44933U 20001V   23026.55693375  .00001471  00000-0  11759-3 0  9991
2 44933  53.0539  55.8966 0001415  94.9765 265.1386 15.06407249169599
1 44933U 20001V   23026.88867554  .00000746  00000-0  68993-4 0  9996
2 44933  53.0538  54.4073 0001471  91.8267 268.2890 15.06396519169644
1 44933U 20001V   23027.35309685  .00000624  00000-0  60749-4 0  9991
2 44933  53.0541  52.3224 0001462  91.4373 268.6783 15.06405761169710
1 44933U 20001V   23027.35309685  .00000624  00000-0  60749-4 0  9991
2 44933  53.0541  52.3224 0001462  91.4373 268.6783 15.06405761169710
1 44933U 20001V   23028.21561547  .00000473  00000-0  50684-4 0  9993
2 44933  53.0538  48.4495 0001508 104.5544 255.5612 15.06391688169841
1 44933U 20001V   23028.41465470  .00001063  00000-0  90283-4 0  9998
2 44933  53.0546  47.5578 0001382  91.5704 268.5443 15.06395047169877
1 44933U 20001V   23028.74638951 -.00000292  00000-0 -71335-6 0  9994
2 44933  53.0549  46.0689 0001400  89.8121 270.3028 15.06397237169920
1 44933U 20001V   23029.47619699  .00000513  00000-0  53340-4 0  9991
2 44933  53.0549  42.7922 0001400  98.7902 261.3246 15.06408415170036
1 44933U 20001V   23029.54254090  .00000856  00000-0  76346-4 0  9990
2 44933  53.0547  42.4943 0001326  87.6025 272.5116 15.06412257170044
1 44933U 20001V   23030.27236364  .00001362  00000-0  11033-3 0  9990
2 44933  53.0539  39.2172 0001350 101.3116 258.8025 15.06397274170154
1 44933U 20001V   23030.40505619  .00002804  00000-0  20709-3 0  9999
2 44933  53.0552  38.6227 0001391  94.2252 265.8895 15.06400541170176
1 44933U 20001V   23031.46660130  .00001571  00000-0  12433-3 0  9991
2 44933  53.0550  33.8567 0001368  89.5426 270.5720 15.06408819170336
1 44933U 20001V   23031.46660130  .00001571  00000-0  12433-3 0  9991
2 44933  53.0550  33.8567 0001368  89.5426 270.5720 15.06408819170336
